QIANFAN-65              
1 62795U 25016L   25249.85388689  .00000116  00000+0  16172-3 0  9997
2 62795  88.9772 113.0848 0012068 264.4736  95.5038 13.50967518 34165
QIANFAN-66              
1 62796U 25016M   25249.88267078  .00000139  00000+0  19618-3 0  9992
2 62796  88.9792 113.0329 0013170 259.2676 100.6992 13.50962771 34211
QIANFAN-67              
1 62797U 25016N   25249.88668844  .00000121  00000+0  16919-3 0  9991
2 62797  88.9782 113.0676 0013176 267.1144  92.8499 13.50971396 34183
QIANFAN-68              
1 62798U 25016P   25249.89080563  .00000131  00000+0  18382-3 0  9996
2 62798  88.9785 113.1118 0013792 265.1034  94.8542 13.50968920 34167
QIANFAN-69              
1 62799U 25016Q   25249.89497672  .00000125  00000+0  17547-3 0  9995
2 62799  88.9764 112.9987 0013974 266.1834  93.7720 13.50964336 34205
QIANFAN-70              
1 62800U 25016R   25249.91142203  .00000136  00000+0  19283-3 0  9999
2 62800  88.9785 113.1149 0013537 255.1935 104.7716 13.50968381 34166
QIANFAN-71              
1 62801U 25016S   25249.90738642  .00000126  00000+0  17715-3 0  9994
2 62801  88.9779 113.1008 0013913 270.1260  89.8297 13.50967935 34161
QIANFAN-72              
1 62802U 25016T   25249.90322215  .00000126  00000+0  17674-3 0  9994
2 62802  88.9769 113.1191 0017391 276.9677  82.9495 13.50963402 34152
